     2.100          NAVIGATION                              RINEX VERSION / TYPE
fic2rin                                 12/09/2013 00:15:23 PGM / RUN BY / DATE
                                                            END OF HEADER
12 13 12  8 16  0  0.0  .172783154994D-03  .227373675443D-11  .000000000000D+00
     .670000000000D+02  .192187500000D+02  .402445334892D-08  .241552585246D+01
     .104121863842D-05  .460563797969D-02  .506080687046D-05  .515371435356D+04
     .576000000000D+05 -.143423676491D-06 -.748874325964D+00  .745058059692D-08
     .986133614572D+00  .292812500000D+03  .328581026604D+00 -.799676166865D-08
     .320013329840D-09  .100000000000D+01  .177000000000D+04  .000000000000D+00
     .240000000000D+01  .000000000000D+00 -.121071934700D-07  .670000000000D+02
     .504060000000D+05  .400000000000D+01
13 13 12  8 16  0  0.0  .520404428244D-04 -.375166564481D-11  .000000000000D+00
     .800000000000D+02 -.531250000000D+00  .421446126351D-08 -.119014649232D+01
    -.106170773506D-06  .505655538291D-02  .762566924095D-05  .515366529083D+04
     .576000000000D+05 -.409781932831D-07 -.277583490238D+01  .167638063431D-07
     .979712147366D+00  .243218750000D+03  .219333915951D+01 -.801426239763D-08
    -.402159608705D-09  .100000000000D+01  .177000000000D+04  .000000000000D+00
     .240000000000D+01  .000000000000D+00 -.111758708954D-07  .800000000000D+02
     .504060000000D+05  .400000000000D+01
15 13 12  8 16  0  0.0 -.151180196553D-03 -.193267624127D-11  .000000000000D+00
     .330000000000D+02 -.828125000000D+01  .513664253321D-08 -.141627368679D+01
    -.480562448502D-06  .596230826341D-02  .619515776634D-05  .515360881996D+04
     .576000000000D+05  .111758708954D-07 -.291278410437D+01 -.137835741043D-06
     .938931376318D+00  .249343750000D+03  .198011194887D+00 -.841927926820D-08
    -.316084594764D-09  .100000000000D+01  .177000000000D+04  .000000000000D+00
     .240000000000D+01  .000000000000D+00 -.102445483208D-07  .330000000000D+02
     .504060000000D+05  .400000000000D+01
16 13 12  8 16  0  0.0 -.239488668740D-03  .113686837722D-11  .000000000000D+00
     .270000000000D+02  .122500000000D+02  .409981363084D-08  .239674624873D+00
     .739470124245D-06  .718689081259D-02  .475160777569D-05  .515376126671D+04
     .576000000000D+05  .167638063431D-06 -.730396756300D+00  .186264514923D-08
     .986786778236D+00  .300187500000D+03  .130024878641D+00 -.817426906255D-08
     .297155234851D-09  .100000000000D+01  .177000000000D+04  .000000000000D+00
     .240000000000D+01  .000000000000D+00 -.977888703346D-08  .270000000000D+02
     .504060000000D+05  .400000000000D+01
17 13 12  8 16  0  0.0 -.480632297695D-04 -.341060513165D-11  .000000000000D+00
     .700000000000D+01 -.776875000000D+02  .471591072233D-08 -.712978122812D+00
    -.387430191040D-05  .885219615884D-02  .662729144096D-05  .515371197510D+04
     .576000000000D+05  .931322574615D-08  .303507754728D+00  .193715095520D-06
     .967340841652D+00  .256531250000D+03 -.217358079482D+01 -.833391856973D-08
    -.119290683221D-09  .100000000000D+01  .177000000000D+04  .000000000000D+00
     .240000000000D+01  .000000000000D+00 -.107102096081D-07  .700000000000D+01
     .504060000000D+05  .400000000000D+01
18 13 12  8 16  0  0.0  .289323274046D-03  .216004991671D-11  .000000000000D+00
     .210000000000D+02  .462500000000D+02  .569559438722D-08  .842958029888D+00
     .252760946751D-05  .145851855632D-01  .711716711521D-05  .515365307045D+04
     .576000000000D+05 -.182539224625D-06  .235183274435D+01  .124797224998D-06
     .926341491624D+00  .228031250000D+03 -.207006747645D+01 -.892394314662D-08
    -.460733477113D-10  .100000000000D+01  .177000000000D+04  .000000000000D+00
     .240000000000D+01  .000000000000D+00 -.111758708954D-07  .210000000000D+02
     .504060000000D+05  .400000000000D+01
20 13 12  8 16  0  0.0  .143012963235D-03  .306954461848D-11  .000000000000D+00
     .590000000000D+02  .523437500000D+02  .560880505782D-08  .132262565157D+01
     .260025262833D-05  .588078121655D-02  .734254717827D-05  .515362108612D+04
     .576000000000D+05 -.931322574615D-07  .229858969310D+01 -.540167093277D-07
     .927197267979D+00  .219593750000D+03  .129574294021D+01 -.866000358105D-08
     .150006248362D-09  .100000000000D+01  .177000000000D+04  .000000000000D+00
     .240000000000D+01  .000000000000D+00 -.791624188423D-08  .590000000000D+02
     .504060000000D+05  .400000000000D+01
21 13 12  8 16  0  0.0 -.332126393914D-03 -.170530256582D-11  .000000000000D+00
     .110000000000D+02 -.254062500000D+02  .513557106001D-08  .187551724291D+01
    -.156089663506D-05  .207472452894D-01  .108070671558D-04  .515359759140D+04
     .576000000000D+05 -.286847352982D-06  .130526128649D+01 -.484287738800D-06
     .931592441502D+00  .161531250000D+03 -.208540475348D+01 -.823141430002D-08
     .158578033983D-09  .100000000000D+01  .177000000000D+04  .000000000000D+00
     .240000000000D+01  .000000000000D+00 -.111758708954D-07  .110000000000D+02
     .504060000000D+05  .400000000000D+01
22 13 12  8 16  0  0.0  .199629925191D-03  .216004991671D-11  .000000000000D+00
     .280000000000D+02  .487187500000D+02  .576452582992D-08  .287661499239D+00
     .265613198280D-05  .669335969724D-02  .643730163574D-05  .515363942337D+04
     .576000000000D+05 -.409781932831D-07  .235405375828D+01  .689178705215D-07
     .924105750497D+00  .236156250000D+03 -.205172001725D+01 -.883858244815D-08
     .310727228751D-10  .100000000000D+01  .177000000000D+04  .000000000000D+00
     .240000000000D+01  .000000000000D+00 -.172294676304D-07  .280000000000D+02
     .504060000000D+05  .400000000000D+01
23 13 12  8 16  0  0.0  .232942402363D-04 -.329691829393D-11  .000000000000D+00
     .950000000000D+02 -.140625000000D+01  .477019869792D-08 -.194489840766D+01
    -.244006514549D-06  .883949571289D-02  .710599124432D-05  .515362148476D+04
     .576000000000D+05  .316649675369D-07 -.286870132680D+01 -.819563865662D-07
     .953939584556D+00  .237937500000D+03 -.280809352462D+01 -.819569852660D-08
    -.329299430929D-09  .100000000000D+01  .177000000000D+04  .000000000000D+00
     .340000000000D+01  .000000000000D+00 -.200234353542D-07  .950000000000D+02
     .504060000000D+05  .400000000000D+01
24 13 12  8 16  0  0.0 -.194660387933D-04 -.682121026330D-12  .000000000000D+00
     .460000000000D+02  .237187500000D+02  .433446626220D-08 -.245463400783D+01
     .130571424961D-05  .147630809806D-02  .951066613197D-05  .515364304924D+04
     .576000000000D+05  .111758708954D-07 -.184192366843D+01  .614672899246D-07
     .957849203864D+00  .196781250000D+03  .810037328963D-01 -.802069123684D-08
     .339299847486D-10  .100000000000D+01  .177000000000D+04  .000000000000D+00
     .240000000000D+01  .000000000000D+00  .279396772385D-08  .460000000000D+02
     .504060000000D+05  .400000000000D+01
25 13 12  8 16  0  0.0  .853557139635D-06  .284217094304D-11  .000000000000D+00
     .950000000000D+02  .178750000000D+02  .430017911972D-08  .153490464845D+01
     .856816768646D-06  .284157355782D-02  .494346022606D-05  .515368820953D+04
     .576000000000D+05 -.521540641785D-07 -.789357167894D+00  .949949026108D-07
     .974887208011D+00  .288718750000D+03  .655102119724D+00 -.821819946385D-08
     .277154401736D-09  .100000000000D+01  .177000000000D+04  .000000000000D+00
     .240000000000D+01  .000000000000D+00  .558793544769D-08  .950000000000D+02
     .504060000000D+05  .400000000000D+01
26 13 12  8 16  0  0.0  .227869488299D-03 -.104591890704D-10  .000000000000D+00
     .290000000000D+02 -.318750000000D+01  .413481508879D-08 -.195501210455D+01
    -.782310962677D-07  .211951684905D-01  .676885247231D-05  .515367885780D+04
     .576000000000D+05  .394880771637D-06 -.278393918766D+01 -.372529029846D-07
     .977136304118D+00  .253406250000D+03  .125555969074D+01 -.767031949960D-08
    -.344657213499D-09  .100000000000D+01  .177000000000D+04  .000000000000D+00
     .240000000000D+01  .000000000000D+00 -.605359673500D-08  .290000000000D+02
     .504060000000D+05  .400000000000D+01
27 13 12  8 16  0  0.0 -.642146915197D-05 -.295585778076D-11  .000000000000D+00
     .360000000000D+02 -.798750000000D+02  .470591030577D-08 -.105563632733D+01
    -.417046248913D-05  .481937313452D-03  .694766640663D-05  .515366862106D+04
     .576000000000D+05 -.521540641785D-07  .259059455369D+00  .931322574615D-08
     .962012993485D+00  .245718750000D+03  .486134203818D+00 -.824070040111D-08
    -.853606984729D-10  .100000000000D+01  .177000000000D+04  .000000000000D+00
     .240000000000D+01  .000000000000D+00  .186264514923D-08  .360000000000D+02
     .504060000000D+05  .400000000000D+01
28 13 12  8 16  0  0.0  .314986798912D-03  .295585778076D-11  .000000000000D+00
     .590000000000D+02  .195937500000D+02  .422874757288D-08  .100028034546D+00
     .100396573544D-05  .191605746513D-01  .569969415665D-05  .515365444374D+04
     .576000000000D+05 -.316649675369D-06 -.724398960410D+00  .521540641785D-07
     .985276410409D+00  .285781250000D+03 -.174857619412D+01 -.841677916406D-08
     .298941023522D-09  .100000000000D+01  .177000000000D+04  .000000000000D+00
     .240000000000D+01  .000000000000D+00 -.107102096081D-07  .590000000000D+02
     .504060000000D+05  .400000000000D+01
29 13 12  8 16  0  0.0  .493538565934D-03  .318323145621D-11  .000000000000D+00
     .930000000000D+02 -.790312500000D+02  .452233123039D-08  .220871671945D+01
    -.427104532719D-05  .149199727457D-02  .704266130924D-05  .515379234314D+04
     .576000000000D+05  .391155481339D-07  .312420761602D+00 -.353902578354D-07
     .968025642382D+00  .250281250000D+03 -.100858874000D+01 -.811319509000D-08
    -.764317551180D-10  .100000000000D+01  .177000000000D+04  .000000000000D+00
     .340000000000D+01  .000000000000D+00 -.931322574615D-08  .930000000000D+02
     .504060000000D+05  .400000000000D+01
